KUIPER-00044            
1 64505U 25134F   26025.53104142 -.00007039  00000+0 -89425-3 0  9991
2 64505  51.8993  77.4382 0010671 128.8709 231.3207 14.79919138 33497
KUIPER-00046            
1 64506U 25134G   26025.83336806 -.00028738  00000+0 -37548-2 0  9996
2 64506  51.8982  72.5676 0000932  24.4075 123.5981 14.79954491  4427
KUIPER-00047            
1 64507U 25134H   26025.47459359  .00006968  00000+0  10141-2 0  9995
2 64507  51.8997  46.0795 0001887  19.9855 340.1179 14.76778481 33920
KUIPER-00048            
1 64508U 25134J   26025.49746311  .00004045  00000+0  55910-3 0  9993
2 64508  51.9004  46.5766 0001433 316.1494  43.9355 14.79948164 33926
KUIPER-00049            
1 64509U 25134K   26025.82002248  .00007336  00000+0  99121-3 0  9993
2 64509  51.9004  58.6238 0001255 157.9303 202.1714 14.79893202 33781
KUIPER-00050            
1 64510U 25134L   26025.30812156  .00010285  00000+0  90108-3 0  9998
2 64510  51.8911  49.1249 0004700 160.3637 199.7515 14.97168789 33877
KUIPER-00051            
1 64511U 25134M   26025.48502018  .00007692  00000+0  10354-2 0  9993
2 64511  51.9022  57.6759 0001215 156.7575 203.3443 14.79992379 33760
KUIPER-00052            
1 64512U 25134N   26025.83336806  .00156311  00000+0  68048-3 0  9990
2 64512  51.8550 328.4565 0003732 147.6378 354.0923 15.83790909  3479
