<?xml version="1.0" encoding="UTF-8"?>
<ndm xmlns:xsi="http://www.w3.org/2001/XMLSchema-instance" xsi:noNamespaceSchemaLocation="https://sanaregistry.org/r/ndmxml_unqualified/ndmxml-2.0.0-master-2.0.xsd">
<omm id="CCSDS_OMM_VERS" version="2.0">
<header><CREATION_DATE/><ORIGINATOR/></header><body><segment><metadata><OBJECT_NAME>KUIPER-00044</OBJECT_NAME><OBJECT_ID>2025-134F</OBJECT_ID><CENTER_NAME>EARTH</CENTER_NAME><REF_FRAME>TEME</REF_FRAME><TIME_SYSTEM>UTC</TIME_SYSTEM><MEAN_ELEMENT_THEORY>SGP4</MEAN_ELEMENT_THEORY></metadata><data><meanElements><EPOCH>2026-01-25T12:44:41.978688</EPOCH><MEAN_MOTION>14.79919138</MEAN_MOTION><ECCENTRICITY>.0010671</ECCENTRICITY><INCLINATION>51.8993</INCLINATION><RA_OF_ASC_NODE>77.4382</RA_OF_ASC_NODE><ARG_OF_PERICENTER>128.8709</ARG_OF_PERICENTER><MEAN_ANOMALY>231.3207</MEAN_ANOMALY></meanElements><tleParameters><EPHEMERIS_TYPE>0</EPHEMERIS_TYPE><CLASSIFICATION_TYPE>U</CLASSIFICATION_TYPE><NORAD_CAT_ID>64505</NORAD_CAT_ID><ELEMENT_SET_NO>999</ELEMENT_SET_NO><REV_AT_EPOCH>3349</REV_AT_EPOCH><BSTAR>-.89425E-3</BSTAR><MEAN_MOTION_DOT>-.7039E-4</MEAN_MOTION_DOT><MEAN_MOTION_DDOT>0</MEAN_MOTION_DDOT></tleParameters></data></segment></body></omm>
<omm id="CCSDS_OMM_VERS" version="2.0">
<header><CREATION_DATE/><ORIGINATOR/></header><body><segment><metadata><OBJECT_NAME>KUIPER-00046</OBJECT_NAME><OBJECT_ID>2025-134G</OBJECT_ID><CENTER_NAME>EARTH</CENTER_NAME><REF_FRAME>TEME</REF_FRAME><TIME_SYSTEM>UTC</TIME_SYSTEM><MEAN_ELEMENT_THEORY>SGP4</MEAN_ELEMENT_THEORY></metadata><data><meanElements><EPOCH>2026-01-25T20:00:03.000384</EPOCH><MEAN_MOTION>14.79954491</MEAN_MOTION><ECCENTRICITY>.0000932</ECCENTRICITY><INCLINATION>51.8982</INCLINATION><RA_OF_ASC_NODE>72.5676</RA_OF_ASC_NODE><ARG_OF_PERICENTER>24.4075</ARG_OF_PERICENTER><MEAN_ANOMALY>123.5981</MEAN_ANOMALY></meanElements><tleParameters><EPHEMERIS_TYPE>0</EPHEMERIS_TYPE><CLASSIFICATION_TYPE>U</CLASSIFICATION_TYPE><NORAD_CAT_ID>64506</NORAD_CAT_ID><ELEMENT_SET_NO>999</ELEMENT_SET_NO><REV_AT_EPOCH>442</REV_AT_EPOCH><BSTAR>-.37548E-2</BSTAR><MEAN_MOTION_DOT>-.28738E-3</MEAN_MOTION_DOT><MEAN_MOTION_DDOT>0</MEAN_MOTION_DDOT></tleParameters></data></segment></body></omm>
<omm id="CCSDS_OMM_VERS" version="2.0">
<header><CREATION_DATE/><ORIGINATOR/></header><body><segment><metadata><OBJECT_NAME>KUIPER-00047</OBJECT_NAME><OBJECT_ID>2025-134H</OBJECT_ID><CENTER_NAME>EARTH</CENTER_NAME><REF_FRAME>TEME</REF_FRAME><TIME_SYSTEM>UTC</TIME_SYSTEM><MEAN_ELEMENT_THEORY>SGP4</MEAN_ELEMENT_THEORY></metadata><data><meanElements><EPOCH>2026-01-25T11:23:24.886176</EPOCH><MEAN_MOTION>14.76778481</MEAN_MOTION><ECCENTRICITY>.00018877</ECCENTRICITY><INCLINATION>51.8997</INCLINATION><RA_OF_ASC_NODE>46.0795</RA_OF_ASC_NODE><ARG_OF_PERICENTER>19.9855</ARG_OF_PERICENTER><MEAN_ANOMALY>340.1179</MEAN_ANOMALY></meanElements><tleParameters><EPHEMERIS_TYPE>0</EPHEMERIS_TYPE><CLASSIFICATION_TYPE>U</CLASSIFICATION_TYPE><NORAD_CAT_ID>64507</NORAD_CAT_ID><ELEMENT_SET_NO>999</ELEMENT_SET_NO><REV_AT_EPOCH>3392</REV_AT_EPOCH><BSTAR>.10141494E-2</BSTAR><MEAN_MOTION_DOT>.6968E-4</MEAN_MOTION_DOT><MEAN_MOTION_DDOT>0</MEAN_MOTION_DDOT></tleParameters></data></segment></body></omm>
<omm id="CCSDS_OMM_VERS" version="2.0">
<header><CREATION_DATE/><ORIGINATOR/></header><body><segment><metadata><OBJECT_NAME>KUIPER-00048</OBJECT_NAME><OBJECT_ID>2025-134J</OBJECT_ID><CENTER_NAME>EARTH</CENTER_NAME><REF_FRAME>TEME</REF_FRAME><TIME_SYSTEM>UTC</TIME_SYSTEM><MEAN_ELEMENT_THEORY>SGP4</MEAN_ELEMENT_THEORY></metadata><data><meanElements><EPOCH>2026-01-25T11:56:20.812704</EPOCH><MEAN_MOTION>14.79948164</MEAN_MOTION><ECCENTRICITY>.00014335</ECCENTRICITY><INCLINATION>51.9004</INCLINATION><RA_OF_ASC_NODE>46.5766</RA_OF_ASC_NODE><ARG_OF_PERICENTER>316.1494</ARG_OF_PERICENTER><MEAN_ANOMALY>43.9355</MEAN_ANOMALY></meanElements><tleParameters><EPHEMERIS_TYPE>0</EPHEMERIS_TYPE><CLASSIFICATION_TYPE>U</CLASSIFICATION_TYPE><NORAD_CAT_ID>64508</NORAD_CAT_ID><ELEMENT_SET_NO>999</ELEMENT_SET_NO><REV_AT_EPOCH>3392</REV_AT_EPOCH><BSTAR>.55909575E-3</BSTAR><MEAN_MOTION_DOT>.4045E-4</MEAN_MOTION_DOT><MEAN_MOTION_DDOT>0</MEAN_MOTION_DDOT></tleParameters></data></segment></body></omm>
<omm id="CCSDS_OMM_VERS" version="2.0">
<header><CREATION_DATE/><ORIGINATOR/></header><body><segment><metadata><OBJECT_NAME>KUIPER-00049</OBJECT_NAME><OBJECT_ID>2025-134K</OBJECT_ID><CENTER_NAME>EARTH</CENTER_NAME><REF_FRAME>TEME</REF_FRAME><TIME_SYSTEM>UTC</TIME_SYSTEM><MEAN_ELEMENT_THEORY>SGP4</MEAN_ELEMENT_THEORY></metadata><data><meanElements><EPOCH>2026-01-25T19:40:49.942272</EPOCH><MEAN_MOTION>14.79893202</MEAN_MOTION><ECCENTRICITY>.0001255</ECCENTRICITY><INCLINATION>51.9004</INCLINATION><RA_OF_ASC_NODE>58.6238</RA_OF_ASC_NODE><ARG_OF_PERICENTER>157.9303</ARG_OF_PERICENTER><MEAN_ANOMALY>202.1714</MEAN_ANOMALY></meanElements><tleParameters><EPHEMERIS_TYPE>0</EPHEMERIS_TYPE><CLASSIFICATION_TYPE>U</CLASSIFICATION_TYPE><NORAD_CAT_ID>64509</NORAD_CAT_ID><ELEMENT_SET_NO>999</ELEMENT_SET_NO><REV_AT_EPOCH>3378</REV_AT_EPOCH><BSTAR>.99121E-3</BSTAR><MEAN_MOTION_DOT>.7336E-4</MEAN_MOTION_DOT><MEAN_MOTION_DDOT>0</MEAN_MOTION_DDOT></tleParameters></data></segment></body></omm>
<omm id="CCSDS_OMM_VERS" version="2.0">
<header><CREATION_DATE/><ORIGINATOR/></header><body><segment><metadata><OBJECT_NAME>KUIPER-00050</OBJECT_NAME><OBJECT_ID>2025-134L</OBJECT_ID><CENTER_NAME>EARTH</CENTER_NAME><REF_FRAME>TEME</REF_FRAME><TIME_SYSTEM>UTC</TIME_SYSTEM><MEAN_ELEMENT_THEORY>SGP4</MEAN_ELEMENT_THEORY></metadata><data><meanElements><EPOCH>2026-01-25T07:23:41.702784</EPOCH><MEAN_MOTION>14.97168789</MEAN_MOTION><ECCENTRICITY>.00047</ECCENTRICITY><INCLINATION>51.8911</INCLINATION><RA_OF_ASC_NODE>49.1249</RA_OF_ASC_NODE><ARG_OF_PERICENTER>160.3637</ARG_OF_PERICENTER><MEAN_ANOMALY>199.7515</MEAN_ANOMALY></meanElements><tleParameters><EPHEMERIS_TYPE>0</EPHEMERIS_TYPE><CLASSIFICATION_TYPE>U</CLASSIFICATION_TYPE><NORAD_CAT_ID>64510</NORAD_CAT_ID><ELEMENT_SET_NO>999</ELEMENT_SET_NO><REV_AT_EPOCH>3387</REV_AT_EPOCH><BSTAR>.90108E-3</BSTAR><MEAN_MOTION_DOT>.10285E-3</MEAN_MOTION_DOT><MEAN_MOTION_DDOT>0</MEAN_MOTION_DDOT></tleParameters></data></segment></body></omm>
<omm id="CCSDS_OMM_VERS" version="2.0">
<header><CREATION_DATE/><ORIGINATOR/></header><body><segment><metadata><OBJECT_NAME>KUIPER-00051</OBJECT_NAME><OBJECT_ID>2025-134M</OBJECT_ID><CENTER_NAME>EARTH</CENTER_NAME><REF_FRAME>TEME</REF_FRAME><TIME_SYSTEM>UTC</TIME_SYSTEM><MEAN_ELEMENT_THEORY>SGP4</MEAN_ELEMENT_THEORY></metadata><data><meanElements><EPOCH>2026-01-25T11:38:25.743552</EPOCH><MEAN_MOTION>14.79992379</MEAN_MOTION><ECCENTRICITY>.0001215</ECCENTRICITY><INCLINATION>51.9022</INCLINATION><RA_OF_ASC_NODE>57.6759</RA_OF_ASC_NODE><ARG_OF_PERICENTER>156.7575</ARG_OF_PERICENTER><MEAN_ANOMALY>203.3443</MEAN_ANOMALY></meanElements><tleParameters><EPHEMERIS_TYPE>0</EPHEMERIS_TYPE><CLASSIFICATION_TYPE>U</CLASSIFICATION_TYPE><NORAD_CAT_ID>64511</NORAD_CAT_ID><ELEMENT_SET_NO>999</ELEMENT_SET_NO><REV_AT_EPOCH>3376</REV_AT_EPOCH><BSTAR>.1035418E-2</BSTAR><MEAN_MOTION_DOT>.7692E-4</MEAN_MOTION_DOT><MEAN_MOTION_DDOT>0</MEAN_MOTION_DDOT></tleParameters></data></segment></body></omm>
<omm id="CCSDS_OMM_VERS" version="2.0">
<header><CREATION_DATE/><ORIGINATOR/></header><body><segment><metadata><OBJECT_NAME>KUIPER-00052</OBJECT_NAME><OBJECT_ID>2025-134N</OBJECT_ID><CENTER_NAME>EARTH</CENTER_NAME><REF_FRAME>TEME</REF_FRAME><TIME_SYSTEM>UTC</TIME_SYSTEM><MEAN_ELEMENT_THEORY>SGP4</MEAN_ELEMENT_THEORY></metadata><data><meanElements><EPOCH>2026-01-25T20:00:03.000384</EPOCH><MEAN_MOTION>15.83790909</MEAN_MOTION><ECCENTRICITY>.0003732</ECCENTRICITY><INCLINATION>51.8550</INCLINATION><RA_OF_ASC_NODE>328.4565</RA_OF_ASC_NODE><ARG_OF_PERICENTER>147.6378</ARG_OF_PERICENTER><MEAN_ANOMALY>354.0923</MEAN_ANOMALY></meanElements><tleParameters><EPHEMERIS_TYPE>0</EPHEMERIS_TYPE><CLASSIFICATION_TYPE>U</CLASSIFICATION_TYPE><NORAD_CAT_ID>64512</NORAD_CAT_ID><ELEMENT_SET_NO>999</ELEMENT_SET_NO><REV_AT_EPOCH>347</REV_AT_EPOCH><BSTAR>.68048E-3</BSTAR><MEAN_MOTION_DOT>.156311E-2</MEAN_MOTION_DOT><MEAN_MOTION_DDOT>0</MEAN_MOTION_DDOT></tleParameters></data></segment></body></omm>

</ndm>
